1;"{""title"":""Mr"",""first"":""yaga"",""last"":""Nathan""}";ercan.huttner@example.com;0451-9865279;Male;"{""street"":{""number"":5107,""name"":""Sch\u00fctzenstra\u00dfe""},""city"":""Rhinow"",""state"":""Sachsen"",""country"":""Germany"",""postcode"":484671231}";https://randomuser.me/api/portraits/women/88.jpg;;2022-10-15T10:42:44.000000Z;2022-10-15T11:05:59.000000Z
2;"{""title"":""Ms"",""first"":""Amelia"",""last"":""Gautier""}";amelia.gautier@example.com;04-18-25-22-94;female;"{""street"":{""number"":6637,""name"":""Place du 22 Novembre 1943""},""country"":""France"",""state"":""Haute-Marne"",""city"":""Courbevoie"",""postcode"":70935}";https://randomuser.me/api/portraits/women/72.jpg;;2022-10-15T10:42:44.000000Z;2022-10-15T10:42:44.000000Z
3;"{""title"":""Ms"",""first"":""Xiomara"",""last"":""das Neves""}";xiomara.dasneves@example.com;"(36) 8259-3189";female;"{""street"":{""number"":6553,""name"":""Rua Minas Gerais ""},""country"":""Brazil"",""state"":""Mato Grosso do Sul"",""city"":""Parintins"",""postcode"":83195}";https://randomuser.me/api/portraits/women/43.jpg;;2022-10-15T10:42:44.000000Z;2022-10-15T10:42:44.000000Z
4;"{""title"":""Mrs"",""first"":""Isla"",""last"":""Lampi""}";isla.lampi@example.com;02-561-984;female;"{""street"":{""number"":6420,""name"":""Korkeavuorenkatu""},""country"":""Finland"",""state"":""Southern Savonia"",""city"":""K\u00f6yli\u00f6"",""postcode"":80726}";https://randomuser.me/api/portraits/women/10.jpg;;2022-10-15T10:42:44.000000Z;2022-10-15T10:42:44.000000Z
5;"{""title"":""Mr"",""first"":""T\u00falio"",""last"":""Farias""}";tulio.farias@example.com;"(91) 0977-1232";male;"{""street"":{""number"":6771,""name"":""Rua S\u00e3o Jorge ""},""country"":""Brazil"",""state"":""Piau\u00ed"",""city"":""S\u00e3o Jos\u00e9 do Rio Preto"",""postcode"":61746}";https://randomuser.me/api/portraits/men/91.jpg;;2022-10-15T10:42:44.000000Z;2022-10-15T10:42:44.000000Z
6;"{""title"":""Mr"",""first"":""Sam"",""last"":""Parker""}";sam.parker@example.com;031-161-2454;male;"{""street"":{""number"":9350,""name"":""Woodlawn Avenue""},""country"":""Ireland"",""state"":""Monaghan"",""city"":""Athlone"",""postcode"":23011}";https://randomuser.me/api/portraits/men/87.jpg;;2022-10-15T10:42:44.000000Z;2022-10-15T10:42:44.000000Z
7;"{""title"":""Mr"",""first"":""Bozhan"",""last"":""Dzhun""}";bozhan.dzhun@example.com;"(066) D19-1631";male;"{""street"":{""number"":9602,""name"":""Suzdalska""},""country"":""Ukraine"",""state"":""Luganska"",""city"":""Pokrovsk"",""postcode"":92939}";https://randomuser.me/api/portraits/men/88.jpg;;2022-10-15T10:42:44.000000Z;2022-10-15T10:42:44.000000Z
8;"{""title"":""Mr"",""first"":""Ludwig"",""last"":""Verkleij""}";ludwig.verkleij@example.com;"(010) 1894200";male;"{""street"":{""number"":1014,""name"":""2e Kwartierstraat""},""country"":""Netherlands"",""state"":""Zeeland"",""city"":""Aagtdorp"",""postcode"":""4770 KE""}";https://randomuser.me/api/portraits/men/68.jpg;;2022-10-15T10:42:44.000000Z;2022-10-15T10:42:44.000000Z
9;"{""title"":""Mr"",""first"":""Leo"",""last"":""Turner""}";leo.turner@example.com;(969)-979-9275;male;"{""street"":{""number"":8744,""name"":""Manners Street""},""country"":""New Zealand"",""state"":""Northland"",""city"":""Palmerston North"",""postcode"":86221}";https://randomuser.me/api/portraits/men/70.jpg;;2022-10-15T10:42:44.000000Z;2022-10-15T10:42:44.000000Z
10;"{""title"":""Mr"",""first"":""Dwarakanath"",""last"":""Prabhu""}";dwarakanath.prabhu@example.com;9471548754;male;"{""street"":{""number"":3782,""name"":""China Bazaar Rd""},""country"":""India"",""state"":""Andhra Pradesh"",""city"":""Berhampur"",""postcode"":98627}";https://randomuser.me/api/portraits/men/88.jpg;;2022-10-15T10:42:44.000000Z;2022-10-15T10:42:44.000000Z
11;"{""title"":""Ms"",""first"":""Elli"",""last"":""Wiitala""}";elli.wiitala@example.com;02-375-505;female;"{""street"":{""number"":1705,""name"":""H\u00e4meenkatu""},""country"":""Finland"",""state"":""Tavastia Proper"",""city"":""F\u00f6gl\u00f6"",""postcode"":24618}";https://randomuser.me/api/portraits/women/25.jpg;;2022-10-15T10:42:44.000000Z;2022-10-15T10:42:44.000000Z
12;"{""title"":""Mr"",""first"":""Francis"",""last"":""Pfeifer""}";francis.pfeifer@example.com;0962-4299126;male;"{""street"":{""number"":871,""name"":""Kirchweg""},""country"":""Germany"",""state"":""Hamburg"",""city"":""Gundelsheim"",""postcode"":92248}";https://randomuser.me/api/portraits/men/74.jpg;;2022-10-15T10:42:44.000000Z;2022-10-15T10:42:44.000000Z
13;"{""title"":""Mr"",""first"":""Ken"",""last"":""Payne""}";ken.payne@example.com;"01248 31600";male;"{""street"":{""number"":6094,""name"":""The Crescent""},""country"":""United Kingdom"",""state"":""Dumfries and Galloway"",""city"":""Chichester"",""postcode"":""B93 6DR""}";https://randomuser.me/api/portraits/men/53.jpg;;2022-10-15T10:42:44.000000Z;2022-10-15T10:42:44.000000Z
14;"{""title"":""Mrs"",""first"":""Natalka"",""last"":""Kubiv""}";natalka.kubiv@example.com;"(099) E18-8169";female;"{""street"":{""number"":6393,""name"":""Zvyagilskogo""},""country"":""Ukraine"",""state"":""Kirovogradska"",""city"":""Sevastopol"",""postcode"":75028}";https://randomuser.me/api/portraits/women/31.jpg;;2022-10-15T10:42:44.000000Z;2022-10-15T10:42:44.000000Z
15;"{""title"":""Mr"",""first"":""Udo"",""last"":""Duarte""}";udo.duarte@example.com;"(86) 3389-7451";male;"{""street"":{""number"":6687,""name"":""Rua Maranh\u00e3o ""},""country"":""Brazil"",""state"":""Minas Gerais"",""city"":""Alagoinhas"",""postcode"":31251}";https://randomuser.me/api/portraits/men/55.jpg;;2022-10-15T10:42:44.000000Z;2022-10-15T10:42:44.000000Z
16;"{""title"":""Mr"",""first"":""Ken"",""last"":""Bradley""}";ken.bradley@example.com;"(359) 354-0064";male;"{""street"":{""number"":7100,""name"":""Mockingbird Ln""},""country"":""United States"",""state"":""Maine"",""city"":""Centennial"",""postcode"":14928}";https://randomuser.me/api/portraits/men/43.jpg;;2022-10-15T10:42:44.000000Z;2022-10-15T10:42:44.000000Z
17;"{""title"":""Mr"",""first"":""Primo"",""last"":""Nunes""}";primo.nunes@example.com;"(92) 3138-7668";male;"{""street"":{""number"":5211,""name"":""Rua Das Flores ""},""country"":""Brazil"",""state"":""Pernambuco"",""city"":""Vit\u00f3ria da Conquista"",""postcode"":12909}";https://randomuser.me/api/portraits/men/95.jpg;;2022-10-15T10:42:44.000000Z;2022-10-15T10:42:44.000000Z
18;"{""title"":""Mr"",""first"":""Mizamir"",""last"":""Plevako""}";mizamir.plevako@example.com;"(068) D19-5524";male;"{""street"":{""number"":4663,""name"":""Kopernika""},""country"":""Ukraine"",""state"":""Rivnenska"",""city"":""Pomichna"",""postcode"":73273}";https://randomuser.me/api/portraits/men/26.jpg;;2022-10-15T10:42:44.000000Z;2022-10-15T10:42:44.000000Z
19;"{""title"":""Mrs"",""first"":""Ellie"",""last"":""Harris""}";ellie.harris@example.com;(156)-576-3543;female;"{""street"":{""number"":6692,""name"":""White Swan Road""},""country"":""New Zealand"",""state"":""Manawatu-Wanganui"",""city"":""Auckland"",""postcode"":74842}";https://randomuser.me/api/portraits/women/50.jpg;;2022-10-15T10:42:44.000000Z;2022-10-15T10:42:44.000000Z
20;"{""title"":""Ms"",""first"":""Vera"",""last"":""Stepanovi\u0107""}";vera.stepanovic@example.com;023-1969-063;female;"{""street"":{""number"":6458,""name"":""Marte Malagurski""},""country"":""Serbia"",""state"":""Ma\u010dva"",""city"":""Topola"",""postcode"":28327}";https://randomuser.me/api/portraits/women/11.jpg;;2022-10-15T10:42:44.000000Z;2022-10-15T10:42:44.000000Z
21;"{""title"":""Mrs"",""first"":""Ka\u0107a"",""last"":""Baki\u0107""}";kaca.bakic@example.com;038-1431-121;female;"{""street"":{""number"":1322,""name"":""Katarine Popovine Mid\u017eine ""},""country"":""Serbia"",""state"":""Ra\u0161ka"",""city"":""Lapovo"",""postcode"":51817}";https://randomuser.me/api/portraits/women/69.jpg;;2022-10-15T10:42:44.000000Z;2022-10-15T10:42:44.000000Z
22;"{""title"":""Mr"",""first"":""Anton"",""last"":""Lobay""}";anton.lobay@example.com;"(096) Q58-9310";male;"{""street"":{""number"":2565,""name"":""3-y provulok Chernishevskogo""},""country"":""Ukraine"",""state"":""Sumska"",""city"":""Yuzhnoukrayinsk"",""postcode"":37226}";https://randomuser.me/api/portraits/men/82.jpg;;2022-10-15T10:42:44.000000Z;2022-10-15T10:42:44.000000Z
23;"{""title"":""Mr"",""first"":""Batur"",""last"":""Ert\u00fcrk""}";batur.erturk@example.com;(774)-513-0057;male;"{""street"":{""number"":2437,""name"":""Filistin Cd""},""country"":""Turkey"",""state"":""Aksaray"",""city"":""\u0130stanbul"",""postcode"":98450}";https://randomuser.me/api/portraits/men/37.jpg;;2022-10-15T10:42:44.000000Z;2022-10-15T10:42:44.000000Z
24;"{""title"":""Mr"",""first"":""Arsenije"",""last"":""Mi\u0161kovi\u0107""}";arsenije.miskovic@example.com;016-8759-426;male;"{""street"":{""number"":5865,""name"":""Antona A\u0161kerca""},""country"":""Serbia"",""state"":""Kolubara"",""city"":""Ruma"",""postcode"":75819}";https://randomuser.me/api/portraits/men/12.jpg;;2022-10-15T10:42:44.000000Z;2022-10-15T10:42:44.000000Z
25;"{""title"":""Mr"",""first"":""Ashton"",""last"":""Evans""}";ashton.evans@example.com;(872)-406-5014;male;"{""street"":{""number"":8397,""name"":""Glenfield Road""},""country"":""New Zealand"",""state"":""Southland"",""city"":""Whanganui"",""postcode"":62521}";https://randomuser.me/api/portraits/men/52.jpg;;2022-10-15T10:42:44.000000Z;2022-10-15T10:42:44.000000Z
26;"{""title"":""Mr"",""first"":""Vitomir"",""last"":""Peretyatko""}";vitomir.peretyatko@example.com;"(067) S59-1338";male;"{""street"":{""number"":4311,""name"":""Ohtirska""},""country"":""Ukraine"",""state"":""Hmelnicka"",""city"":""Antracit"",""postcode"":88315}";https://randomuser.me/api/portraits/men/35.jpg;;2022-10-15T10:42:44.000000Z;2022-10-15T10:42:44.000000Z
27;"{""title"":""Mr"",""first"":""\u062d\u0633\u06cc\u0646"",""last"":""\u0632\u0627\u0631\u0639\u06cc""}";hsyn.zraay@example.com;076-83665698;male;"{""street"":{""number"":2918,""name"":""30 \u062a\u06cc\u0631""},""country"":""Iran"",""state"":""\u0642\u0645"",""city"":""\u0622\u0645\u0644"",""postcode"":11216}";https://randomuser.me/api/portraits/men/82.jpg;;2022-10-15T10:42:44.000000Z;2022-10-15T10:42:44.000000Z
28;"{""title"":""Mr"",""first"":""Aleksi"",""last"":""Toivonen""}";aleksi.toivonen@example.com;04-798-770;male;"{""street"":{""number"":8775,""name"":""Satakennankatu""},""country"":""Finland"",""state"":""Pirkanmaa"",""city"":""Kiuruvesi"",""postcode"":54769}";https://randomuser.me/api/portraits/men/64.jpg;;2022-10-15T10:42:44.000000Z;2022-10-15T10:42:44.000000Z
29;"{""title"":""Ms"",""first"":""Adrijana"",""last"":""Cveji\u0107""}";adrijana.cvejic@example.com;023-8932-933;female;"{""street"":{""number"":3278,""name"":""Drenoglavska""},""country"":""Serbia"",""state"":""Pe\u0107"",""city"":""Crna Trava"",""postcode"":49855}";https://randomuser.me/api/portraits/women/1.jpg;;2022-10-15T10:42:44.000000Z;2022-10-15T10:42:44.000000Z
30;"{""title"":""Mr"",""first"":""Andrew"",""last"":""Schouwenaar""}";andrew.schouwenaar@example.com;"(039) 9832283";male;"{""street"":{""number"":5532,""name"":""Dr. A.F. Philipsstraat""},""country"":""Netherlands"",""state"":""Friesland"",""city"":""Oostknollendam"",""postcode"":""9799 VY""}";https://randomuser.me/api/portraits/men/74.jpg;;2022-10-15T10:42:44.000000Z;2022-10-15T10:42:44.000000Z
31;"{""title"":""Miss"",""first"":""Dafina"",""last"":""Van Rheenen""}";dafina.vanrheenen@example.com;"(033) 7550781";female;"{""street"":{""number"":5141,""name"":""Jan van Harenstraat""},""country"":""Netherlands"",""state"":""Drenthe"",""city"":""Zenderen"",""postcode"":""6013 EE""}";https://randomuser.me/api/portraits/women/12.jpg;;2022-10-15T10:42:44.000000Z;2022-10-15T10:42:44.000000Z
32;"{""title"":""Ms"",""first"":""Gusti"",""last"":""B\u00fcchler""}";gusti.buchler@example.com;0441-1232253;female;"{""street"":{""number"":8023,""name"":""Kirchgasse""},""country"":""Germany"",""state"":""Baden-W\u00fcrttemberg"",""city"":""Miltenberg"",""postcode"":26719}";https://randomuser.me/api/portraits/women/66.jpg;;2022-10-15T10:42:44.000000Z;2022-10-15T10:42:44.000000Z
33;"{""title"":""Mr"",""first"":""Boban"",""last"":""Katani\u0107""}";boban.katanic@example.com;021-9757-405;male;"{""street"":{""number"":6406,""name"":""Matije Ambro\u017ei\u0107a ""},""country"":""Serbia"",""state"":""Kosovo"",""city"":""Apatin"",""postcode"":84590}";https://randomuser.me/api/portraits/men/84.jpg;;2022-10-15T10:42:44.000000Z;2022-10-15T10:42:44.000000Z
34;"{""title"":""Mr"",""first"":""Milo"",""last"":""Martinez""}";milo.martinez@example.com;03-95-69-34-61;male;"{""street"":{""number"":9106,""name"":""Rue du 8 Mai 1945""},""country"":""France"",""state"":""Haute-Garonne"",""city"":""Saint-Denis"",""postcode"":43311}";https://randomuser.me/api/portraits/men/38.jpg;;2022-10-15T10:42:44.000000Z;2022-10-15T10:42:44.000000Z
35;"{""title"":""Mr"",""first"":""Manu"",""last"":""Van Lienden""}";manu.vanlienden@example.com;"(015) 4494109";male;"{""street"":{""number"":9844,""name"":""Kruisdreef""},""country"":""Netherlands"",""state"":""Noord-Brabant"",""city"":""Ens"",""postcode"":""4604 VK""}";https://randomuser.me/api/portraits/men/71.jpg;;2022-10-15T10:42:44.000000Z;2022-10-15T10:42:44.000000Z
36;"{""title"":""Miss"",""first"":""Eevi"",""last"":""Halonen""}";eevi.halonen@example.com;09-854-768;female;"{""street"":{""number"":7235,""name"":""Satakennankatu""},""country"":""Finland"",""state"":""Central Finland"",""city"":""Kauhava"",""postcode"":70010}";https://randomuser.me/api/portraits/women/89.jpg;;2022-10-15T10:42:44.000000Z;2022-10-15T10:42:44.000000Z
37;"{""title"":""Mr"",""first"":""Manuel"",""last"":""Herrera""}";manuel.herrera@example.com;913-937-911;male;"{""street"":{""number"":5393,""name"":""Calle Mota""},""country"":""Spain"",""state"":""Ceuta"",""city"":""Granada"",""postcode"":29968}";https://randomuser.me/api/portraits/men/18.jpg;;2022-10-15T10:42:44.000000Z;2022-10-15T10:42:44.000000Z
38;"{""title"":""Mr"",""first"":""Anania"",""last"":""Santos""}";anania.santos@example.com;"(53) 7635-1322";male;"{""street"":{""number"":4467,""name"":""Rua Maranh\u00e3o ""},""country"":""Brazil"",""state"":""Rio Grande do Sul"",""city"":""Sinop"",""postcode"":90037}";https://randomuser.me/api/portraits/men/75.jpg;;2022-10-15T10:42:44.000000Z;2022-10-15T10:42:44.000000Z
39;"{""title"":""Mr"",""first"":""Alfonso"",""last"":""Lozano""}";alfonso.lozano@example.com;908-815-477;male;"{""street"":{""number"":9542,""name"":""Avenida de La Albufera""},""country"":""Spain"",""state"":""Andaluc\u00eda"",""city"":""Madrid"",""postcode"":34525}";https://randomuser.me/api/portraits/men/32.jpg;;2022-10-15T10:42:44.000000Z;2022-10-15T10:42:44.000000Z
40;"{""title"":""Monsieur"",""first"":""Johan"",""last"":""Moulin""}";johan.moulin@example.com;"075 602 33 96";male;"{""street"":{""number"":3565,""name"":""Rue des Abbesses""},""country"":""Switzerland"",""state"":""Glarus"",""city"":""Lohn-Ammannsegg"",""postcode"":1308}";https://randomuser.me/api/portraits/men/30.jpg;;2022-10-15T10:42:44.000000Z;2022-10-15T10:42:44.000000Z
41;"{""title"":""Mrs"",""first"":""\u06cc\u0627\u0633\u0645\u06cc\u0646"",""last"":""\u06cc\u0627\u0633\u0645\u06cc""}";ysmyn.ysmy@example.com;087-72549257;female;"{""street"":{""number"":7959,""name"":""\u0622\u06cc\u062a\u200c\u0627\u0644\u0644\u0647 \u0645\u062f\u0646\u06cc""},""country"":""Iran"",""state"":""\u06a9\u0647\u06af\u06cc\u0644\u0648\u06cc\u0647 \u0648 \u0628\u0648\u06cc\u0631\u0627\u062d\u0645\u062f"",""city"":""\u0627\u0633\u0644\u0627\u0645\u200c\u0634\u0647\u0631"",""postcode"":19895}";https://randomuser.me/api/portraits/women/17.jpg;;2022-10-15T10:42:44.000000Z;2022-10-15T10:42:44.000000Z
42;"{""title"":""Mr"",""first"":""Soham"",""last"":""Shelton""}";soham.shelton@example.com;041-399-2695;male;"{""street"":{""number"":7768,""name"":""Boghall Road""},""country"":""Ireland"",""state"":""Waterford"",""city"":""Mallow"",""postcode"":93751}";https://randomuser.me/api/portraits/men/93.jpg;;2022-10-15T10:42:44.000000Z;2022-10-15T10:42:44.000000Z
43;"{""title"":""Mrs"",""first"":""Jennifer"",""last"":""Price""}";jennifer.price@example.com;071-226-1472;female;"{""street"":{""number"":110,""name"":""Station Road""},""country"":""Ireland"",""state"":""Waterford"",""city"":""Carrigaline"",""postcode"":15599}";https://randomuser.me/api/portraits/women/16.jpg;;2022-10-15T10:42:44.000000Z;2022-10-15T10:42:44.000000Z
44;"{""title"":""Miss"",""first"":""Victoria"",""last"":""Francois""}";victoria.francois@example.com;04-01-54-68-06;female;"{""street"":{""number"":7338,""name"":""Rue de L'Abb\u00e9-Groult""},""country"":""France"",""state"":""Seine-Saint-Denis"",""city"":""Villeurbanne"",""postcode"":33953}";https://randomuser.me/api/portraits/women/21.jpg;;2022-10-15T10:42:44.000000Z;2022-10-15T10:42:44.000000Z
45;"{""title"":""Mrs"",""first"":""Yolanda"",""last"":""Le\u00f3n""}";yolanda.leon@example.com;948-625-689;female;"{""street"":{""number"":3190,""name"":""Avenida de Castilla""},""country"":""Spain"",""state"":""Arag\u00f3n"",""city"":""Arrecife"",""postcode"":23784}";https://randomuser.me/api/portraits/women/38.jpg;;2022-10-15T10:42:44.000000Z;2022-10-15T10:42:44.000000Z
46;"{""title"":""Mr"",""first"":""Daniel"",""last"":""Omahony""}";daniel.omahony@example.com;051-594-7716;male;"{""street"":{""number"":5508,""name"":""Green Lane""},""country"":""Ireland"",""state"":""Kilkenny"",""city"":""Oranmore"",""postcode"":70581}";https://randomuser.me/api/portraits/men/83.jpg;;2022-10-15T10:42:44.000000Z;2022-10-15T10:42:44.000000Z
47;"{""title"":""Ms"",""first"":""Emma"",""last"":""Mitchell""}";emma.mitchell@example.com;"O46 P54-1168";female;"{""street"":{""number"":36,""name"":""Charles St""},""country"":""Canada"",""state"":""New Brunswick"",""city"":""Chelsea"",""postcode"":""X5V 9C6""}";https://randomuser.me/api/portraits/women/0.jpg;;2022-10-15T10:42:44.000000Z;2022-10-15T10:42:44.000000Z
48;"{""title"":""Mr"",""first"":""Ruben"",""last"":""Walker""}";ruben.walker@example.com;051-941-3588;male;"{""street"":{""number"":3974,""name"":""Grove Road""},""country"":""Ireland"",""state"":""Kildare"",""city"":""Tipperary"",""postcode"":50369}";https://randomuser.me/api/portraits/men/71.jpg;;2022-10-15T10:42:44.000000Z;2022-10-15T10:42:44.000000Z
49;"{""title"":""Ms"",""first"":""Ellen"",""last"":""Heinonen""}";ellen.heinonen@example.com;02-769-251;female;"{""street"":{""number"":6950,""name"":""Siilitie""},""country"":""Finland"",""state"":""Satakunta"",""city"":""Ilmajoki"",""postcode"":72986}";https://randomuser.me/api/portraits/women/78.jpg;;2022-10-15T10:42:44.000000Z;2022-10-15T10:42:44.000000Z
50;"{""title"":""Mr"",""first"":""Matt"",""last"":""Grant""}";matt.grant@example.com;011-622-0643;male;"{""street"":{""number"":3540,""name"":""School Lane""},""country"":""Ireland"",""state"":""Monaghan"",""city"":""Clane"",""postcode"":17853}";https://randomuser.me/api/portraits/men/73.jpg;;2022-10-15T10:42:44.000000Z;2022-10-15T10:42:44.000000Z
